[{"OBJECT_NAME":"STARLINK-34994","OBJECT_ID":"2025-225Q","EPOCH":"2026-03-09T21:37:36.822432","MEAN_MOTION":15.30202022,"ECCENTRICITY":0.00012594,"INCLINATION":53.1588,"RA_OF_ASC_NODE":164.4695,"ARG_OF_PERICENTER":79.0363,"MEAN_ANOMALY":281.078,"EPHEMERIS_TYPE":0,"CLASSIFICATION_TYPE":"U","NORAD_CAT_ID":65924,"ELEMENT_SET_NO":999,"REV_AT_EPOCH":2444,"BSTAR":0.00091783582,"MEAN_MOTION_DOT":0.00026925,"MEAN_MOTION_DDOT":0},{"OBJECT_NAME":"FENGYUN 1C DEB","OBJECT_ID":"1999-025BRA","EPOCH":"2026-03-07T21:38:03.570144","MEAN_MOTION":15.14550758,"ECCENTRICITY":0.01045185,"INCLINATION":98.8762,"RA_OF_ASC_NODE":52.6466,"ARG_OF_PERICENTER":91.2586,"MEAN_ANOMALY":270.0618,"EPHEMERIS_TYPE":0,"CLASSIFICATION_TYPE":"U","NORAD_CAT_ID":31346,"ELEMENT_SET_NO":999,"REV_AT_EPOCH":773,"BSTAR":0.0014203897,"MEAN_MOTION_DOT":0.00030047,"MEAN_MOTION_DDOT":0}]
